LEMUR-2-AMANDA-SVANTE   
1 48269U 21034B   26068.77637527  .00030872  00000+0  11134-2 0  9996
2 48269  97.5829 144.8625 0002703 205.4721 154.6385 15.28469003265849
STARLINK-33758          
1 64004U 25101L   26067.83674913  .00044004  00000+0  15990-2 0  9992
2 64004  43.0012   2.8821 0000507 258.3313 101.7481 15.27581192 46928
